ORBCOMM-X               
1 21576U 91050C   25233.75247349  .00000221  00000+0  78346-4 0  9998
2 21576  98.3388 299.0026 0003487   9.3796 350.7459 14.43303458791573
ORBCOMM FM01            
1 23545U 95017A   25234.51060657  .00003525  00000+0  36723-3 0  9995
2 23545  69.9613 268.6737 0005400 245.4436 114.6156 14.90697541622393
ORBCOMM FM02            
1 23546U 95017B   25232.60162155  .00006094  00000+0  61258-3 0  9995
2 23546  69.9649 292.6090 0006656 241.3236 118.7251 14.91703622621769
ORBCOMM FM08            
1 25112U 97084A   25233.95815425  .00001133  00000+0  35544-3 0  9994
2 25112  45.0147  52.0938 0006502 213.9561 146.0875 14.45980428450893
ORBCOMM FM10            
1 25113U 97084B   25232.77437435  .00001045  00000+0  33262-3 0  9992
2 25113  45.0156  60.2727 0005182 173.7884 186.3033 14.45757261625866
ORBCOMM FM11            
1 25114U 97084C   25232.85925300  .00001129  00000+0  35773-3 0  9997
2 25114  45.0143  60.6161 0005947 176.5950 183.4943 14.45505928450835
ORBCOMM FM12            
1 25115U 97084D   25232.82078616  .00001055  00000+0  33690-3 0  9998
2 25115  45.0150  60.5437 0005005 172.3554 187.7375 14.45526297450623
ORBCOMM FM09            
1 25116U 97084E   25232.85873088  .00000929  00000+0  30228-3 0  9991
2 25116  45.0153  61.3597 0006352 164.2525 195.8524 14.45397385450830
